start=new Date('2023-01-25T00:00:00.000Z').valueOf();
sats=[{"CENTER_NAME":"EARTH","MEAN_MOTION_DDOT":"0.0000000000000","OBJECT_TYPE":"PAYLOAD","SITE":"AFETR","PERIOD":"95.438","MEAN_ELEMENT_THEORY":"SGP4","ARG_OF_PERICENTER":"68.1168","EPOCH":"2023-01-23T17:31:44.409504","FILE":"3759023","MEAN_ANOMALY":"292.0021","NORAD_CAT_ID":"52140","SEMIMAJOR_AXIS":"6917.884","RA_OF_ASC_NODE":"151.0986","INCLINATION":"53.2154","ELEMENT_SET_NO":"999","EPHEMERIS_TYPE":"0","GP_ID":"223617559","BSTAR":"0.00011341000000","TLE_LINE1":"1 52140U 22029BE  23023.73037511  .00001517  00000-0  11341-3 0  9991","COUNTRY_CODE":"US","LAUNCH_DATE":"2022-03-19","REV_AT_EPOCH":"4869","ECCENTRICITY":"0.00018480","MEAN_MOTION":"15.08838739","OBJECT_NAME":"STARLINK-3682","TLE_LINE2":"2 52140  53.2154 151.0986 0001848  68.1168 292.0021 15.08838739 48690","MEAN_MOTION_DOT":"0.00001517","OBJECT_ID":"2022-029BE","RCS_SIZE":"LARGE","DECAY_DATE":null,"TIME_SYSTEM":"UTC","PERIAPSIS":"538.471","REF_FRAME":"TEME","CLASSIFICATION_TYPE":"U","APOAPSIS":"541.028"},{"PERIAPSIS":"537.865","REF_FRAME":"TEME","APOAPSIS":"541.618","CLASSIFICATION_TYPE":"U","TLE_LINE2":"2 52261  53.2163 189.0310 0002712  56.3984 303.7267 15.08841285 43408","MEAN_MOTION_DOT":"0.00000936","RCS_SIZE":"LARGE","DECAY_DATE":null,"OBJECT_ID":"2022-041A","TIME_SYSTEM":"UTC","COUNTRY_CODE":"US","REV_AT_EPOCH":"4340","LAUNCH_DATE":"2022-04-21","OBJECT_NAME":"STARLINK-3810","MEAN_MOTION":"15.08841285","ECCENTRICITY":"0.00027120","BSTAR":"0.00007690800000","TLE_LINE1":"1 52261U 22041A   23024.19037179  .00000936  00000-0  76908-4 0  9995","INCLINATION":"53.2163","EPHEMERIS_TYPE":"0","GP_ID":"223634480","ELEMENT_SET_NO":"999","NORAD_CAT_ID":"52261","MEAN_ANOMALY":"303.7267","RA_OF_ASC_NODE":"189.0310","SEMIMAJOR_AXIS":"6917.876","EPOCH":"2023-01-24T04:34:08.122656","FILE":"3759808","MEAN_MOTION_DDOT":"0.0000000000000","CENTER_NAME":"EARTH","OBJECT_TYPE":"PAYLOAD","MEAN_ELEMENT_THEORY":"SGP4","PERIOD":"95.437","SITE":"AFETR","ARG_OF_PERICENTER":"56.3984"},{"MEAN_MOTION_DOT":"0.00000485","TLE_LINE2":"2 52262  53.2163 187.8058 0001891  70.2798 289.8398 15.08837794 43442","TIME_SYSTEM":"UTC","OBJECT_ID":"2022-041B","DECAY_DATE":null,"RCS_SIZE":"LARGE","PERIAPSIS":"538.444","CLASSIFICATION_TYPE":"U","APOAPSIS":"541.060","REF_FRAME":"TEME","BSTAR":"0.00004855800000","TLE_LINE1":"1 52262U 22041B   23024.45997007  .00000485  00000-0  48558-4 0  9999","COUNTRY_CODE":"US","MEAN_MOTION":"15.08837794","ECCENTRICITY":"0.00018910","OBJECT_NAME":"STARLINK-3761","LAUNCH_DATE":"2022-04-21","REV_AT_EPOCH":"4344","MEAN_ANOMALY":"289.8398","NORAD_CAT_ID":"52262","SEMIMAJOR_AXIS":"6917.887","RA_OF_ASC_NODE":"187.8058","INCLINATION":"53.2163","ELEMENT_SET_NO":"999","EPHEMERIS_TYPE":"0","GP_ID":"223634472","OBJECT_TYPE":"PAYLOAD","CENTER_NAME":"EARTH","MEAN_MOTION_DDOT":"0.0000000000000","ARG_OF_PERICENTER":"70.2798","SITE":"AFETR","PERIOD":"95.438","MEAN_ELEMENT_THEORY":"SGP4","EPOCH":"2023-01-24T11:02:21.414048","FILE":"3759808"},{"ARG_OF_PERICENTER":"81.1283","MEAN_ELEMENT_THEORY":"SGP4","PERIOD":"95.437","SITE":"AFETR","OBJECT_TYPE":"PAYLOAD","MEAN_MOTION_DDOT":"0.0000000000000","CENTER_NAME":"EARTH","FILE":"3760116","EPOCH":"2023-01-24T18:57:54.091296","RA_OF_ASC_NODE":"186.3340","SEMIMAJOR_AXIS":"6917.867","NORAD_CAT_ID":"52263","MEAN_ANOMALY":"278.9936","GP_ID":"223640551","EPHEMERIS_TYPE":"0","ELEMENT_SET_NO":"999","INCLINATION":"53.2173","TLE_LINE1":"1 52263U 22041C   23024.79020939 -.00000037  00000-0  15788-4 0  9991","BSTAR":"0.00001578800000","OBJECT_NAME":"STARLINK-3786","MEAN_MOTION":"15.08844246","ECCENTRICITY":"0.00020010","REV_AT_EPOCH":"4348","LAUNCH_DATE":"2022-04-21","COUNTRY_CODE":"US","TIME_SYSTEM":"UTC","RCS_SIZE":"LARGE","DECAY_DATE":null,"OBJECT_ID":"2022-041C","MEAN_MOTION_DOT":"-0.00000037","TLE_LINE2":"2 52263  53.2173 186.3340 0002001  81.1283 278.9936 15.08844246 43487","APOAPSIS":"541.117","CLASSIFICATION_TYPE":"U","REF_FRAME":"TEME","PERIAPSIS":"538.348"},{"GP_ID":"223641049","EPHEMERIS_TYPE":"0","ELEMENT_SET_NO":"999","INCLINATION":"53.2167","SEMIMAJOR_AXIS":"6917.908","RA_OF_ASC_NODE":"186.6683","NORAD_CAT_ID":"52264","MEAN_ANOMALY":"291.2186","FILE":"3760116","EPOCH":"2023-01-24T17:11:56.863104","PERIOD":"95.438","MEAN_ELEMENT_THEORY":"SGP4","SITE":"AFETR","ARG_OF_PERICENTER":"68.8995","MEAN_MOTION_DDOT":"0.0000000000000","CENTER_NAME":"EARTH","OBJECT_TYPE":"PAYLOAD","REF_FRAME":"TEME","APOAPSIS":"540.996","CLASSIFICATION_TYPE":"U","PERIAPSIS":"538.550","DECAY_DATE":null,"RCS_SIZE":"LARGE","OBJECT_ID":"2022-041D","TIME_SYSTEM":"UTC","TLE_LINE2":"2 52264  53.2167 186.6683 0001768  68.8995 291.2186 15.08830912 43474","MEAN_MOTION_DOT":"-0.00000793","REV_AT_EPOCH":"4347","LAUNCH_DATE":"2022-04-21","OBJECT_NAME":"STARLINK-3795","MEAN_MOTION":"15.08830912","ECCENTRICITY":"0.00017680","COUNTRY_CODE":"US","TLE_LINE1":"1 52264U 22041D   23024.71663036 -.00000793  00000-0 -31705-4 0  9992","BSTAR":"-0.00003170500000"},{"ELEMENT_SET_NO":"999","EPHEMERIS_TYPE":"0","GP_ID":"223620259","INCLINATION":"53.2190","RA_OF_ASC_NODE":"191.1458","SEMIMAJOR_AXIS":"6917.873","NORAD_CAT_ID":"52265","MEAN_ANOMALY":"294.0201","FILE":"3759122","EPOCH":"2023-01-23T17:15:50.416128","ARG_OF_PERICENTER":"66.1029","SITE":"AFETR","MEAN_ELEMENT_THEORY":"SGP4","PERIOD":"95.437","OBJECT_TYPE":"PAYLOAD","CENTER_NAME":"EARTH","MEAN_MOTION_DDOT":"0.0000000000000","CLASSIFICATION_TYPE":"U","APOAPSIS":"541.314","REF_FRAME":"TEME","PERIAPSIS":"538.163","TIME_SYSTEM":"UTC","OBJECT_ID":"2022-041E","DECAY_DATE":null,"RCS_SIZE":"LARGE","MEAN_MOTION_DOT":"0.00000786","TLE_LINE2":"2 52265  53.2190 191.1458 0002277  66.1029 294.0201 15.08842307 43332","MEAN_MOTION":"15.08842307","ECCENTRICITY":"0.00022770","OBJECT_NAME":"STARLINK-3740","LAUNCH_DATE":"2022-04-21","REV_AT_EPOCH":"4333","COUNTRY_CODE":"US","TLE_LINE1":"1 52265U 22041E   23023.71933352  .00000786  00000-0  67466-4 0  9996","BSTAR":"0.00006746600000"},{"FILE":"3760117","EPOCH":"2023-01-24T18:36:42.142464","ARG_OF_PERICENTER":"79.4933","MEAN_ELEMENT_THEORY":"SGP4","PERIOD":"95.437","SITE":"AFETR","OBJECT_TYPE":"PAYLOAD","MEAN_MOTION_DDOT":"0.0000000000000","CENTER_NAME":"EARTH","GP_ID":"223641064","EPHEMERIS_TYPE":"0","ELEMENT_SET_NO":"999","INCLINATION":"53.2178","RA_OF_ASC_NODE":"186.4009","SEMIMAJOR_AXIS":"6917.862","NORAD_CAT_ID":"52266","MEAN_ANOMALY":"280.6240","OBJECT_NAME":"STARLINK-3739","MEAN_MOTION":"15.08846134","ECCENTRICITY":"0.00016020","REV_AT_EPOCH":"4349","LAUNCH_DATE":"2022-04-21","COUNTRY_CODE":"US","TLE_LINE1":"1 52266U 22041F   23024.77548776  .00001032  00000-0  82933-4 0  9997","BSTAR":"0.00008293300000","APOAPSIS":"540.835","CLASSIFICATION_TYPE":"U","REF_FRAME":"TEME","PERIAPSIS":"538.618","TIME_SYSTEM":"UTC","DECAY_DATE":null,"RCS_SIZE":"LARGE","OBJECT_ID":"2022-041F","MEAN_MOTION_DOT":"0.00001032","TLE_LINE2":"2 52266  53.2178 186.4009 0001602  79.4933 280.6240 15.08846134 43493"},{"CENTER_NAME":"EARTH","MEAN_MOTION_DDOT":"0.0000000000000","OBJECT_TYPE":"PAYLOAD","SITE":"AFETR","PERIOD":"95.438","MEAN_ELEMENT_THEORY":"SGP4","ARG_OF_PERICENTER":"68.1976","EPOCH":"2023-01-23T18:40:37.641216","FILE":"3759060","NORAD_CAT_ID":"52267","MEAN_ANOMALY":"291.9231","SEMIMAJOR_AXIS":"6917.878","RA_OF_ASC_NODE":"190.8726","INCLINATION":"53.2167","ELEMENT_SET_NO":"999","EPHEMERIS_TYPE":"0","GP_ID":"223618891","BSTAR":"0.00005394600000","TLE_LINE1":"1 52267U 22041G   23023.77821344  .00000570  00000-0  53946-4 0  9990","COUNTRY_CODE":"US","LAUNCH_DATE":"2022-04-21","REV_AT_EPOCH":"4334","MEAN_MOTION":"15.08840767","ECCENTRICITY":"0.00020160","OBJECT_NAME":"STARLINK-3748","TLE_LINE2":"2 52267  53.2167 190.8726 0002016  68.1976 291.9231 15.08840767 43344","MEAN_MOTION_DOT":"0.00000570","OBJECT_ID":"2022-041G","RCS_SIZE":"LARGE","DECAY_DATE":null,"TIME_SYSTEM":"UTC","PERIAPSIS":"538.348","REF_FRAME":"TEME","CLASSIFICATION_TYPE":"U","APOAPSIS":"541.138"},{"NORAD_CAT_ID":"52268","MEAN_ANOMALY":"287.6585","RA_OF_ASC_NODE":"188.2517","SEMIMAJOR_AXIS":"6917.896","INCLINATION":"53.2139","ELEMENT_SET_NO":"999","GP_ID":"223634909","EPHEMERIS_TYPE":"0","OBJECT_TYPE":"PAYLOAD","CENTER_NAME":"EARTH","MEAN_MOTION_DDOT":"0.0000000000000","ARG_OF_PERICENTER":"72.4594","SITE":"AFETR","MEAN_ELEMENT_THEORY":"SGP4","PERIOD":"95.438","EPOCH":"2023-01-24T08:43:12.256320","FILE":"3759805","MEAN_MOTION_DOT":"0.00000936","TLE_LINE2":"2 52268  53.2139 188.2517 0001716  72.4594 287.6585 15.08834800 43438","TIME_SYSTEM":"UTC","OBJECT_ID":"2022-041H","DECAY_DATE":null,"RCS_SIZE":"LARGE","PERIAPSIS":"538.574","CLASSIFICATION_TYPE":"U","APOAPSIS":"540.948","REF_FRAME":"TEME","BSTAR":"0.00007691200000","TLE_LINE1":"1 52268U 22041H   23024.36333630  .00000936  00000-0  76912-4 0  9997","COUNTRY_CODE":"US","ECCENTRICITY":"0.00017160","MEAN_MOTION":"15.08834800","OBJECT_NAME":"STARLINK-3746","LAUNCH_DATE":"2022-04-21","REV_AT_EPOCH":"4343"},{"EPHEMERIS_TYPE":"0","GP_ID":"223641061","ELEMENT_SET_NO":"999","INCLINATION":"53.2144","RA_OF_ASC_NODE":"186.4305","SEMIMAJOR_AXIS":"6917.866","NORAD_CAT_ID":"52269","MEAN_ANOMALY":"274.4287","FILE":"3760117","EPOCH":"2023-01-24T18:26:06.465696","MEAN_ELEMENT_THEORY":"SGP4","PERIOD":"95.437","SITE":"AFETR","ARG_OF_PERICENTER":"85.6851","MEAN_MOTION_DDOT":"0.0000000000000","CENTER_NAME":"EARTH","OBJECT_TYPE":"PAYLOAD","REF_FRAME":"TEME","APOAPSIS":"540.614","CLASSIFICATION_TYPE":"U","PERIAPSIS":"538.848","RCS_SIZE":"LARGE","DECAY_DATE":null,"OBJECT_ID":"2022-041J","TIME_SYSTEM":"UTC","TLE_LINE2":"2 52269  53.2144 186.4305 0001277  85.6851 274.4287 15.08844729 43494","MEAN_MOTION_DOT":"0.00001384","REV_AT_EPOCH":"4349","LAUNCH_DATE":"2022-04-21","OBJECT_NAME":"STARLINK-3791","ECCENTRICITY":"0.00012770","MEAN_MOTION":"15.08844729","COUNTRY_CODE":"US","TLE_LINE1":"1 52269U 22041J   23024.76813039  .00001384  00000-0  10501-3 0  9997","BSTAR":"0.00010501000000"}];
